[{"OBJECT_NAME":"IRIDIUM 147","OBJECT_ID":"2018-047E","EPOCH":"2026-03-09T16:30:46.128960","MEAN_MOTION":14.34216716,"ECCENTRICITY":0.00022292,"INCLINATION":86.3976,"RA_OF_ASC_NODE":129.9478,"ARG_OF_PERICENTER":99.0413,"MEAN_ANOMALY":261.1036,"EPHEMERIS_TYPE":0,"CLASSIFICATION_TYPE":"U","NORAD_CAT_ID":43480,"ELEMENT_SET_NO":999,"REV_AT_EPOCH":40822,"BSTAR":8.9014334e-5,"MEAN_MOTION_DOT":2.69e-6,"MEAN_MOTION_DDOT":0},{"OBJECT_NAME":"NOAA 6","OBJECT_ID":"1979-057A","EPOCH":"2026-03-09T16:35:00.749760","MEAN_MOTION":14.35433611,"ECCENTRICITY":0.00097192,"INCLINATION":98.5751,"RA_OF_ASC_NODE":98.8445,"ARG_OF_PERICENTER":186.9208,"MEAN_ANOMALY":173.1845,"EPHEMERIS_TYPE":0,"CLASSIFICATION_TYPE":"U","NORAD_CAT_ID":11416,"ELEMENT_SET_NO":999,"REV_AT_EPOCH":43668,"BSTAR":0.0001473812,"MEAN_MOTION_DOT":3.79e-6,"MEAN_MOTION_DDOT":0}]
